[{"OBJECT_NAME":"STARLINK-11709 [DTC]","OBJECT_ID":"2025-107B","EPOCH":"2025-12-22T14:46:56.358912","MEAN_MOTION":15.70872456,"ECCENTRICITY":0.0001655,"INCLINATION":42.9989,"RA_OF_ASC_NODE":203.0516,"ARG_OF_PERICENTER":251.0113,"MEAN_ANOMALY":109.0576,"EPHEMERIS_TYPE":0,"CLASSIFICATION_TYPE":"U","NORAD_CAT_ID":64065,"ELEMENT_SET_NO":999,"REV_AT_EPOCH":3517,"BSTAR":0.0014987,"MEAN_MOTION_DOT":0.00196743,"MEAN_MOTION_DDOT":0},{"OBJECT_NAME":"STARLINK-11737 [DTC]","OBJECT_ID":"2025-107C","EPOCH":"2025-12-22T20:30:14.208768","MEAN_MOTION":15.70867692,"ECCENTRICITY":0.0001635,"INCLINATION":43.0016,"RA_OF_ASC_NODE":201.3907,"ARG_OF_PERICENTER":259.0738,"MEAN_ANOMALY":100.9946,"EPHEMERIS_TYPE":0,"CLASSIFICATION_TYPE":"U","NORAD_CAT_ID":64066,"ELEMENT_SET_NO":999,"REV_AT_EPOCH":3521,"BSTAR":0.0007522,"MEAN_MOTION_DOT":0.0009732,"MEAN_MOTION_DDOT":0},{"OBJECT_NAME":"STARLINK-11726 [DTC]","OBJECT_ID":"2025-107D","EPOCH":"2025-12-22T20:14:57.470208","MEAN_MOTION":15.70983594,"ECCENTRICITY":0.0002418,"INCLINATION":42.9977,"RA_OF_ASC_NODE":201.3037,"ARG_OF_PERICENTER":246.7358,"MEAN_ANOMALY":113.3256,"EPHEMERIS_TYPE":0,"CLASSIFICATION_TYPE":"U","NORAD_CAT_ID":64067,"ELEMENT_SET_NO":999,"REV_AT_EPOCH":3521,"BSTAR":0.0013589,"MEAN_MOTION_DOT":0.00178802,"MEAN_MOTION_DDOT":0},{"OBJECT_NAME":"STARLINK-11700 [DTC]","OBJECT_ID":"2025-107E","EPOCH":"2025-12-22T15:03:32.557824","MEAN_MOTION":15.70866833,"ECCENTRICITY":0.00017217,"INCLINATION":42.9986,"RA_OF_ASC_NODE":203.1439,"ARG_OF_PERICENTER":263.3796,"MEAN_ANOMALY":96.6876,"EPHEMERIS_TYPE":0,"CLASSIFICATION_TYPE":"U","NORAD_CAT_ID":64068,"ELEMENT_SET_NO":999,"REV_AT_EPOCH":3517,"BSTAR":0.00088722187,"MEAN_MOTION_DOT":0.00115114,"MEAN_MOTION_DDOT":0},{"OBJECT_NAME":"STARLINK-11649 [DTC]","OBJECT_ID":"2025-107F","EPOCH":"2025-12-22T13:53:36.163392","MEAN_MOTION":15.71104092,"ECCENTRICITY":0.00027661,"INCLINATION":42.9978,"RA_OF_ASC_NODE":203.6484,"ARG_OF_PERICENTER":236.5043,"MEAN_ANOMALY":123.5561,"EPHEMERIS_TYPE":0,"CLASSIFICATION_TYPE":"U","NORAD_CAT_ID":64069,"ELEMENT_SET_NO":999,"REV_AT_EPOCH":3516,"BSTAR":0.0024142115,"MEAN_MOTION_DOT":0.00325362,"MEAN_MOTION_DDOT":0},{"OBJECT_NAME":"STARLINK-11713 [DTC]","OBJECT_ID":"2025-107G","EPOCH":"2025-12-21T14:14:20.656032","MEAN_MOTION":15.70884678,"ECCENTRICITY":0.000128,"INCLINATION":42.999,"RA_OF_ASC_NODE":209.1401,"ARG_OF_PERICENTER":231.1327,"MEAN_ANOMALY":128.9427,"EPHEMERIS_TYPE":0,"CLASSIFICATION_TYPE":"U","NORAD_CAT_ID":64070,"ELEMENT_SET_NO":999,"REV_AT_EPOCH":3501,"BSTAR":0.00043388,"MEAN_MOTION_DOT":0.00055703,"MEAN_MOTION_DDOT":0},{"OBJECT_NAME":"STARLINK-11719 [DTC]","OBJECT_ID":"2025-107H","EPOCH":"2025-12-22T07:24:25.642368","MEAN_MOTION":15.70860292,"ECCENTRICITY":0.00017374,"INCLINATION":42.9996,"RA_OF_ASC_NODE":205.0503,"ARG_OF_PERICENTER":261.3509,"MEAN_ANOMALY":98.7162,"EPHEMERIS_TYPE":0,"CLASSIFICATION_TYPE":"U","NORAD_CAT_ID":64071,"ELEMENT_SET_NO":999,"REV_AT_EPOCH":3512,"BSTAR":0.00022682235,"MEAN_MOTION_DOT":0.00028782,"MEAN_MOTION_DDOT":0},{"OBJECT_NAME":"STARLINK-11733 [DTC]","OBJECT_ID":"2025-107J","EPOCH":"2025-12-22T20:22:36.109920","MEAN_MOTION":15.71049591,"ECCENTRICITY":0.0001813,"INCLINATION":42.9976,"RA_OF_ASC_NODE":201.3447,"ARG_OF_PERICENTER":199.7716,"MEAN_ANOMALY":160.3082,"EPHEMERIS_TYPE":0,"CLASSIFICATION_TYPE":"U","NORAD_CAT_ID":64072,"ELEMENT_SET_NO":999,"REV_AT_EPOCH":3521,"BSTAR":0.0016408,"MEAN_MOTION_DOT":0.00217597,"MEAN_MOTION_DDOT":0},{"OBJECT_NAME":"STARLINK-11729 [DTC]","OBJECT_ID":"2025-107K","EPOCH":"2025-12-22T13:38:18.868416","MEAN_MOTION":15.71032317,"ECCENTRICITY":0.00012473,"INCLINATION":43.006,"RA_OF_ASC_NODE":203.5706,"ARG_OF_PERICENTER":143.8647,"MEAN_ANOMALY":216.2305,"EPHEMERIS_TYPE":0,"CLASSIFICATION_TYPE":"U","NORAD_CAT_ID":64073,"ELEMENT_SET_NO":999,"REV_AT_EPOCH":3516,"BSTAR":0.0021418876,"MEAN_MOTION_DOT":0.0028637,"MEAN_MOTION_DDOT":0},{"OBJECT_NAME":"STARLINK-11730 [DTC]","OBJECT_ID":"2025-107L","EPOCH":"2025-12-21T23:38:59.642592","MEAN_MOTION":15.70920944,"ECCENTRICITY":0.00014078,"INCLINATION":42.9991,"RA_OF_ASC_NODE":206.9249,"ARG_OF_PERICENTER":274.2254,"MEAN_ANOMALY":85.8453,"EPHEMERIS_TYPE":0,"CLASSIFICATION_TYPE":"U","NORAD_CAT_ID":64074,"ELEMENT_SET_NO":999,"REV_AT_EPOCH":3507,"BSTAR":0.0019646775,"MEAN_MOTION_DOT":0.00260595,"MEAN_MOTION_DDOT":0},{"OBJECT_NAME":"STARLINK-11723 [DTC]","OBJECT_ID":"2025-107M","EPOCH":"2025-12-22T20:37:53.545728","MEAN_MOTION":15.70982731,"ECCENTRICITY":0.000202,"INCLINATION":42.998,"RA_OF_ASC_NODE":201.428,"ARG_OF_PERICENTER":231.9824,"MEAN_ANOMALY":128.0862,"EPHEMERIS_TYPE":0,"CLASSIFICATION_TYPE":"U","NORAD_CAT_ID":64075,"ELEMENT_SET_NO":999,"REV_AT_EPOCH":3521,"BSTAR":0.0013649,"MEAN_MOTION_DOT":0.001796,"MEAN_MOTION_DDOT":0},{"OBJECT_NAME":"STARLINK-11715 [DTC]","OBJECT_ID":"2025-107N","EPOCH":"2025-12-21T15:07:40.755648","MEAN_MOTION":15.70919498,"ECCENTRICITY":0.0001979,"INCLINATION":42.9996,"RA_OF_ASC_NODE":208.541,"ARG_OF_PERICENTER":297.4632,"MEAN_ANOMALY":62.6034,"EPHEMERIS_TYPE":0,"CLASSIFICATION_TYPE":"U","NORAD_CAT_ID":64076,"ELEMENT_SET_NO":999,"REV_AT_EPOCH":3502,"BSTAR":0.0013774,"MEAN_MOTION_DOT":0.00180796,"MEAN_MOTION_DDOT":0},{"OBJECT_NAME":"STARLINK-34201","OBJECT_ID":"2025-107P","EPOCH":"2025-12-22T12:15:10.432224","MEAN_MOTION":15.27593903,"ECCENTRICITY":8.457e-5,"INCLINATION":43.0016,"RA_OF_ASC_NODE":277.7038,"ARG_OF_PERICENTER":288.9972,"MEAN_ANOMALY":71.0788,"EPHEMERIS_TYPE":0,"CLASSIFICATION_TYPE":"U","NORAD_CAT_ID":64077,"ELEMENT_SET_NO":999,"REV_AT_EPOCH":3322,"BSTAR":0.00069200154,"MEAN_MOTION_DOT":0.00018837,"MEAN_MOTION_DDOT":0},{"OBJECT_NAME":"STARLINK-34190","OBJECT_ID":"2025-107Q","EPOCH":"2025-12-22T03:47:23.275392","MEAN_MOTION":15.27616045,"ECCENTRICITY":8.809e-5,"INCLINATION":43.0001,"RA_OF_ASC_NODE":279.3507,"ARG_OF_PERICENTER":257.3524,"MEAN_ANOMALY":102.7229,"EPHEMERIS_TYPE":0,"CLASSIFICATION_TYPE":"U","NORAD_CAT_ID":64078,"ELEMENT_SET_NO":999,"REV_AT_EPOCH":3426,"BSTAR":0.0013996353,"MEAN_MOTION_DOT":0.00038496,"MEAN_MOTION_DDOT":0},{"OBJECT_NAME":"STARLINK-34168","OBJECT_ID":"2025-107R","EPOCH":"2025-12-22T03:21:29.117376","MEAN_MOTION":15.27621767,"ECCENTRICITY":0.00016562,"INCLINATION":43.0006,"RA_OF_ASC_NODE":279.2154,"ARG_OF_PERICENTER":281.0314,"MEAN_ANOMALY":79.0351,"EPHEMERIS_TYPE":0,"CLASSIFICATION_TYPE":"U","NORAD_CAT_ID":64079,"ELEMENT_SET_NO":999,"REV_AT_EPOCH":3426,"BSTAR":0.00095194702,"MEAN_MOTION_DOT":0.0002606,"MEAN_MOTION_DDOT":0},{"OBJECT_NAME":"STARLINK-34098","OBJECT_ID":"2025-107S","EPOCH":"2025-12-22T19:14:09.300192","MEAN_MOTION":15.2761362,"ECCENTRICITY":4.27e-5,"INCLINATION":43.0023,"RA_OF_ASC_NODE":275.5793,"ARG_OF_PERICENTER":192.5631,"MEAN_ANOMALY":167.521,"EPHEMERIS_TYPE":0,"CLASSIFICATION_TYPE":"U","NORAD_CAT_ID":64080,"ELEMENT_SET_NO":999,"REV_AT_EPOCH":3436,"BSTAR":0.00076248,"MEAN_MOTION_DOT":0.000208,"MEAN_MOTION_DDOT":0}]
