STARLINK-11709 [DTC]    
1 64065U 25107B   25356.61593008  .00196743  00000+0  14987-2 0  9999
2 64065  42.9989 203.0516 0001655 251.0113 109.0576 15.70872456 35170
STARLINK-11737 [DTC]    
1 64066U 25107C   25356.85433112  .00097320  00000+0  75220-3 0  9994
2 64066  43.0016 201.3907 0001635 259.0738 100.9946 15.70867692 35210
STARLINK-11726 [DTC]    
1 64067U 25107D   25356.84372072  .00178802  00000+0  13589-2 0  9995
2 64067  42.9977 201.3037 0002418 246.7358 113.3256 15.70983594 35212
STARLINK-11700 [DTC]    
1 64068U 25107E   25356.62746016  .00115114  00000+0  88722-3 0  9994
2 64068  42.9986 203.1439 0001721 263.3796  96.6876 15.70866833 35178
STARLINK-11649 [DTC]    
1 64069U 25107F   25356.57889078  .00325362  00000+0  24142-2 0  9998
2 64069  42.9978 203.6484 0002766 236.5043 123.5561 15.71104092 35165
STARLINK-11713 [DTC]    
1 64070U 25107G   25355.59329463  .00055703  00000+0  43388-3 0  9991
2 64070  42.9990 209.1401 0001280 231.1327 128.9427 15.70884678 35015
STARLINK-11719 [DTC]    
1 64071U 25107H   25356.30863012  .00028782  00000+0  22682-3 0  9996
2 64071  42.9996 205.0503 0001737 261.3509  98.7162 15.70860292 35122
STARLINK-11733 [DTC]    
1 64072U 25107J   25356.84902905  .00217597  00000+0  16408-2 0  9993
2 64072  42.9976 201.3447 0001813 199.7716 160.3082 15.71049591 35215
STARLINK-11729 [DTC]    
1 64073U 25107K   25356.56827394  .00286370  00000+0  21419-2 0  9994
2 64073  43.0060 203.5706 0001247 143.8647 216.2305 15.71032317 35169
STARLINK-11730 [DTC]    
1 64074U 25107L   25355.98541253  .00260595  00000+0  19647-2 0  9998
2 64074  42.9991 206.9249 0001407 274.2254  85.8453 15.70920944 35076
STARLINK-11723 [DTC]    
1 64075U 25107M   25356.85964752  .00179600  00000+0  13649-2 0  9991
2 64075  42.9980 201.4280 0002020 231.9824 128.0862 15.70982731 35217
STARLINK-11715 [DTC]    
1 64076U 25107N   25355.63033282  .00180796  00000+0  13774-2 0  9999
2 64076  42.9996 208.5410 0001979 297.4632  62.6034 15.70919498 35027
STARLINK-34201          
1 64077U 25107P   25356.51053741  .00018837  00000+0  69200-3 0  9992
2 64077  43.0016 277.7038 0000845 288.9972  71.0788 15.27593903 33221
STARLINK-34190          
1 64078U 25107Q   25356.15790828  .00038496  00000+0  13996-2 0  9990
2 64078  43.0001 279.3507 0000880 257.3524 102.7229 15.27616045 34267
STARLINK-34168          
1 64079U 25107R   25356.13992034  .00026060  00000+0  95195-3 0  9998
2 64079  43.0006 279.2154 0001656 281.0314  79.0351 15.27621767 34262
STARLINK-34098          
1 64080U 25107S   25356.80149653  .00020800  00000+0  76248-3 0  9999
2 64080  43.0023 275.5793 0000427 192.5631 167.5210 15.27613620 34361
